OBJECT_NAME,OBJECT_ID,EPOCH,MEAN_MOTION,ECCENTRICITY,INCLINATION,RA_OF_ASC_NODE,ARG_OF_PERICENTER,MEAN_ANOMALY,EPHEMERIS_TYPE,CLASSIFICATION_TYPE,NORAD_CAT_ID,ELEMENT_SET_NO,REV_AT_EPOCH,BSTAR,MEAN_MOTION_DOT,MEAN_MOTION_DDOT
OSCAR 7 (AO-7),1974-089B,2026-06-09T07:29:40.127136,12.53697932,.0012488,101.9901,173.4766,144.7701,229.1729,0,U,7530,999,35953,.69227E-4,-.35E-6,0
PHASE 3B (AO-10),1983-058B,2026-06-07T04:08:14.383680,2.05872980,.60142661,25.9048,221.2242,112.9115,319.2048,0,U,14129,999,29528,0,-.194E-5,0
UOSAT 2 (UO-11),1984-021B,2026-06-09T10:26:56.849280,14.90763984,.0006913,97.8054,126.0969,198.6022,161.4944,0,U,14781,999,25597,.11981E-3,.1122E-4,0
LUSAT (LO-19),1990-005G,2026-06-09T05:28:47.157312,14.34120727,.0010713,98.8852,181.8144,225.8181,134.2123,0,U,20442,999,90125,.53684E-4,.103E-5,0
EYESAT A (AO-27),1993-061C,2026-06-09T10:45:15.114240,14.30940206,.0009417,98.6881,227.8641,119.8200,240.3919,0,U,22825,999,70589,.47247E-4,.8E-6,0
ITAMSAT (IO-26),1993-061D,2026-06-09T10:18:55.762848,14.31366838,.0010032,98.6830,227.7625,105.1057,255.1236,0,U,22826,999,70620,.47221E-4,.81E-6,0
RADIO ROSTO (RS15),1994-085A,2026-06-09T11:43:45.395040,11.27583629,.0155713,64.8186,315.6669,5.3005,354.9524,0,U,23439,999,29503,.14709E-3,-.37E-6,0
JAS-2 (FO-29),1996-046B,2026-06-09T11:22:34.832064,13.53273763,.0350783,98.5247,10.4028,116.3945,247.3646,0,U,24278,999,47212,.28819E-4,-.4E-7,0
TECHSAT 1B (GO-32),1998-043D,2026-06-09T11:28:31.531008,14.24426925,.0000613,99.0065,153.0425,183.0488,177.0687,0,U,25397,999,45023,.47013E-4,.62E-6,0
ISS (ZARYA),1998-067A,2026-06-09T12:19:23.388096,15.49683556,.0006877,51.6332,338.0748,150.8507,209.2867,0,U,25544,999,57056,.13794E-3,.7341E-4,0
PCSAT (NO-44),2001-043C,2026-06-09T13:06:28.325952,14.31953409,.0006107,67.0511,264.0346,264.2446,95.7959,0,U,26931,999,28935,.63924E-4,.88E-6,0
SAUDISAT 1C (SO-50),2002-058C,2026-06-09T07:59:40.322976,14.83029515,.0075434,64.5504,153.2855,263.9300,95.3207,0,U,27607,999,26329,.12688E-3,.929E-5,0
CUTE-1 (CO-55),2003-031E,2026-06-09T05:45:04.286016,14.24330800,.0009004,98.6735,168.8984,201.6668,158.4131,0,U,27844,999,19054,.13415E-3,.266E-5,0
CUBESAT XI-IV (CO-57),2003-031J,2026-06-09T00:19:05.278656,14.23616414,.00085614,98.6766,168.3941,222.5153,137.5363,0,U,27848,999,19021,.11651716E-3,.222E-5,0
MOZHAETS 4 (RS22),2003-042A,2026-06-09T13:04:05.271744,14.73452877,.0010159,98.3474,344.6876,297.0248,155.9562,0,U,27939,999,21442,.8442E-4,.494E-5,0
CUBESAT XI-V,2005-043F,2026-06-09T09:14:13.585344,14.72610449,.0013165,98.2976,315.8433,226.6554,133.3557,0,U,28895,999,10060,.21228E-3,.13E-4,0
CUTE-1.7+APD II (CO-65),2008-021C,2026-06-09T11:49:20.162208,15.09379566,.0010344,97.8272,141.7515,61.4937,298.7331,0,U,32785,999,98403,.33171E-3,.5238E-4,0
SEEDS II (CO-66),2008-021J,2026-06-09T05:39:09.737568,15.32477826,.0002294,97.7519,157.7552,29.0945,331.0423,0,U,32791,999,98607,.51422E-3,.1606E-3,0
YUBILEINY (RS30),2008-025A,2026-06-09T10:52:23.331648,12.43179072,.0019191,82.5050,0.2522,331.2977,28.7045,0,U,32953,999,81873,.25256E-3,.45E-6,0
KKS-1 (KISEKI),2009-002H,2026-06-09T11:57:02.200032,14.83104394,.0006991,98.1192,82.8184,324.8419,35.2332,0,U,33499,999,93505,.16601E-3,.1297E-4,0
SWISSCUBE,2009-051B,2026-06-09T05:34:22.374624,14.62466323,.0005536,98.4042,67.9819,231.7827,128.2876,0,U,35932,999,88799,.1843E-3,.884E-5,0
BEESAT-1,2009-051C,2026-06-09T12:16:18.064416,14.61708260,.0003918,98.3972,67.9173,247.5852,112.4933,0,U,35933,999,88806,.16607E-3,.778E-5,0
ITUPSAT1,2009-051E,2026-06-09T11:53:30.554592,14.60429234,.0006086,98.4055,67.1012,262.7226,97.3282,0,U,35935,999,88761,.15408E-3,.698E-5,0
XIWANG-1 (HOPE-1),2009-072B,2026-06-09T11:48:26.392032,13.16437659,.0006808,100.4023,114.4470,251.1258,108.9117,0,U,36122,999,79199,-.82351E-3,-.359E-5,0
O/OREOS (USA 219),2010-062C,2026-06-09T05:26:25.171008,14.93710062,.0012386,71.9704,98.3700,80.4823,279.7746,0,U,37224,999,11545,.20525E-3,.2113E-4,0
JUGNU,2011-058B,2026-06-09T06:27:07.528032,14.13774628,.001855,19.9621,356.5333,349.0526,166.6651,0,U,37839,999,75790,.72297E-4,.405E-5,0
SRMSAT,2011-058D,2026-06-09T12:50:18.600864,14.11573956,.0011936,19.9710,105.7844,119.8301,40.8059,0,U,37841,999,75673,.52397E-4,.362E-5,0
STRAND-1,2013-009E,2026-06-09T11:12:48.119040,14.37158714,.0007447,98.3920,340.8917,251.7124,108.3252,0,U,39090,999,69595,.10495E-3,.269E-5,0
ZACUBE-1 (TSHEPISOSAT),2013-066B,2026-06-09T11:24:15.748128,15.01140367,.0040069,97.8090,122.7702,274.7996,84.8653,0,U,39417,999,67957,.23849E-3,.3043E-4,0
GOMX-1,2013-066Q,2026-06-09T11:47:30.633792,14.69431192,.0130156,97.6494,1.4397,101.9869,259.5961,0,U,39430,999,66878,.27315E-3,.1791E-4,0
